{
  "norad_id": 50203,
  "name": "STARLINK-3257",
  "history": [
    {
      "epoch": "2026-03-28T21:35:18.054528Z",
      "apogee_km": 540.7373141837679,
      "perigee_km": 538.7924152535215,
      "latitude_deg": 1.1172781535003638e-05,
      "longitude_deg": 2.83364321325383,
      "height_km": 540.4967210587569,
      "semi_major_axis_km": 6917.901864718645,
      "eccentricity": 0.00014057,
      "inclination_deg": 53.217,
      "raan_deg": 152.9722,
      "arg_perigee_deg": 80.3046,
      "mean_anomaly_deg": 279.8105,
      "mean_motion_rev_day": 15.08832974
    },
    {
      "epoch": "2026-03-29T03:56:50.659008Z",
      "apogee_km": 540.6814892697475,
      "perigee_km": 538.8302611363433,
      "latitude_deg": 4.74036094291797e-05,
      "longitude_deg": -94.0037389863876,
      "height_km": 540.5456245253417,
      "semi_major_axis_km": 6917.892875203045,
      "eccentricity": 0.0001338,
      "inclination_deg": 53.2169,
      "raan_deg": 151.7818,
      "arg_perigee_deg": 83.4279,
      "mean_anomaly_deg": 276.6866,
      "mean_motion_rev_day": 15.08835915
    },
    {
      "epoch": "2026-03-30T03:47:37.791456Z",
      "apogee_km": 540.677656526972,
      "perigee_km": 538.811212115992,
      "latitude_deg": 5.8618269937424044e-05,
      "longitude_deg": -97.13895314297797,
      "height_km": 540.5149559893359,
      "semi_major_axis_km": 6917.881434321482,
      "eccentricity": 0.0001349,
      "inclination_deg": 53.2162,
      "raan_deg": 147.3223,
      "arg_perigee_deg": 82.2973,
      "mean_anomaly_deg": 277.8173,
      "mean_motion_rev_day": 15.08839658
    },
    {
      "epoch": "2026-03-30T10:09:10.186848Z",
      "apogee_km": 540.6741469605331,
      "perigee_km": 538.8050750577713,
      "latitude_deg": -3.42223999686745e-05,
      "longitude_deg": 166.02554253342933,
      "height_km": 540.507209812991,
      "semi_major_axis_km": 6917.876611009152,
      "eccentricity": 0.00013509,
      "inclination_deg": 53.2161,
      "raan_deg": 146.133,
      "arg_perigee_deg": 82.1272,
      "mean_anomaly_deg": 277.9873,
      "mean_motion_rev_day": 15.08841236
    },
    {
      "epoch": "2026-03-31T09:59:57.207840Z",
      "apogee_km": 540.6632477406874,
      "perigee_km": 538.8190797797924,
      "latitude_deg": 2.9922800056384934e-05,
      "longitude_deg": 162.88873404902475,
      "height_km": 540.5885186373463,
      "semi_major_axis_km": 6917.87816376024,
      "eccentricity": 0.00013329,
      "inclination_deg": 53.2158,
      "raan_deg": 141.6714,
      "arg_perigee_deg": 87.0025,
      "mean_anomaly_deg": 273.112,
      "mean_motion_rev_day": 15.08840728
    },
    {
      "epoch": "2026-04-01T19:23:03.501888Z",
      "apogee_km": 540.6491711628223,
      "perigee_km": 538.8671213731441,
      "latitude_deg": 3.463627825047278e-05,
      "longitude_deg": 14.496437582862136,
      "height_km": 540.6168959507602,
      "semi_major_axis_km": 6917.895146267983,
      "eccentricity": 0.0001288,
      "inclination_deg": 53.2161,
      "raan_deg": 135.4264,
      "arg_perigee_deg": 87.6257,
      "mean_anomaly_deg": 272.4883,
      "mean_motion_rev_day": 15.08835172
    }
  ]
}